NORAD_CAT_ID,OBJECT_NAME,OBJECT_TYPE,EPOCH,MEAN_MOTION,ECCENTRICITY,INCLINATION,RA_OF_ASC_NODE,ARG_OF_PERICENTER,MEAN_ANOMALY,BSTAR,MEAN_MOTION_DOT,MEAN_MOTION_DDOT,TLE_LINE0,TLE_LINE1,TLE_LINE2,SEMIMAJOR_AXIS,PERIOD,APOGEE,PERIGEE,DECAYED
52682.0,STARLINK-4017,PAYLOAD,2023-09-16 09:14:59,15.08836312,0.000158,53.217,248.1897,93.2114,266.9059,3.8775e-06,-2.26e-06,0.0,0 STARLINK-4017,1 52682U 22053AC  23259.38541217 -.00000226  00000-0  38775-5 0  9993,2 52682  53.2170 248.1897 0001580  93.2114 266.9059 15.08836312 74078,6917.892,95.438,540.85,538.664,0.0
52682.0,STARLINK-4017,PAYLOAD,2023-09-17 09:05:46,15.08840014,0.0001615,53.2167,243.7288,95.6837,264.434,-1.8586e-05,-5.84e-06,0.0,0 STARLINK-4017,1 52682U 22053AC  23260.37901399 -.00000584  00000-0 -18586-4 0  9990,2 52682  53.2167 243.7288 0001615  95.6837 264.4340 15.08840014 74638,6917.88,95.438,540.863,538.628,0.0
52682.0,STARLINK-4017,PAYLOAD,2023-09-17 15:27:19,15.08841953,0.0001607,53.2168,242.5396,95.3088,264.8087,6.387e-06,-1.86e-06,0.0,0 STARLINK-4017,1 52682U 22053AC  23260.64397189 -.00000186  00000-0  63870-5 0  9990,2 52682  53.2168 242.5396 0001607  95.3088 264.8087 15.08841953 74266,6917.874,95.437,540.851,538.628,0.0
52682.0,STARLINK-4017,PAYLOAD,2023-09-18 07:21:10,15.08798263,0.0001901,53.2166,239.5668,98.0421,262.0787,0.00080911,0.00012598,0.0,0 STARLINK-4017,1 52682U 22053AC  23261.30637439  .00012598  00000-0  80911-3 0  9991,2 52682  53.2166 239.5668 0001901  98.0421 262.0787 15.08798263 74363,6918.008,95.44,541.188,538.558,0.0
52682.0,STARLINK-4017,PAYLOAD,2023-09-19 02:25:48,15.08840845,0.0001657,53.2168,236.0001,90.9012,269.217,7.145e-05,8.49e-06,0.0,0 STARLINK-4017,1 52682U 22053AC  23262.10125240  .00000849  00000-0  71450-4 0  9997,2 52682  53.2168 236.0001 0001657  90.9012 269.2170 15.08840845 74485,6917.878,95.438,540.889,538.597,0.0
52682.0,STARLINK-4017,PAYLOAD,2023-09-19 08:47:19,15.08850672,0.0001616,53.217,234.8088,87.2567,272.861,0.00015335,2.154e-05,0.0,0 STARLINK-4017,1 52682U 22053AC  23262.36620315  .00002154  00000-0  15335-3 0  9998,2 52682  53.2170 234.8088 0001616  87.2567 272.8610 15.08850672 74521,6917.848,95.437,540.831,538.595,0.0
52682.0,STARLINK-4017,PAYLOAD,2023-09-20 02:16:35,15.08838205,0.0001797,53.2177,231.5362,89.6396,270.4802,-3.5013e-05,-8.45e-06,0.0,0 STARLINK-4017,1 52682U 22053AC  23263.09485625 -.00000845  00000-0 -35013-4 0  9995,2 52682  53.2177 231.5362 0001797  89.6396 270.4802 15.08838205 74630,6917.886,95.438,540.994,538.508,0.0
52682.0,STARLINK-4017,PAYLOAD,2023-09-20 07:02:44,15.08845633,0.0001624,53.217,230.6448,92.3583,267.7595,-5.2283e-05,-1.12e-05,0.0,0 STARLINK-4017,1 52682U 22053AC  23263.29357185 -.00001120  00000-0 -52283-4 0  9991,2 52682  53.2170 230.6448 0001624  92.3583 267.7595 15.08845633 75076,6917.863,95.437,540.852,538.605,0.0
52682.0,STARLINK-4017,PAYLOAD,2023-09-20 14:59:40,15.0884282,0.0001637,53.2172,229.158,91.4829,268.635,-8.2268e-05,-1.597e-05,0.0,0 STARLINK-4017,1 52682U 22053AC  23263.62477387 -.00001597  00000-0 -82268-4 0  9999,2 52682  53.2172 229.1580 0001637  91.4829 268.6350 15.08842820 75125,6917.872,95.437,540.869,538.604,0.0
52682.0,STARLINK-4017,PAYLOAD,2023-09-21 06:53:32,15.08840009,0.0001498,53.217,226.1856,93.6259,266.4905,-6.0815e-05,-1.256e-05,0.0,0 STARLINK-4017,1 52682U 22053AC  23264.28717777 -.00001256  00000-0 -60815-4 0  9998,2 52682  53.2170 226.1856 0001498  93.6259 266.4905 15.08840009 74816,6917.88,95.438,540.782,538.709,0.0
52682.0,STARLINK-4017,PAYLOAD,2023-09-22 03:33:32,15.08845271,0.0001507,53.2171,222.3209,97.6789,262.4374,0.00012157,1.648e-05,0.0,0 STARLINK-4017,1 52682U 22053AC  23265.14829364  .00001648  00000-0  12157-3 0  9998,2 52682  53.2171 222.3209 0001507  97.6789 262.4374 15.08845271 74946,6917.864,95.437,540.772,538.687,0.0
52682.0,STARLINK-4017,PAYLOAD,2023-09-22 21:02:47,15.08829622,0.000161,53.2173,219.0508,96.112,264.0056,0.00032585,4.9e-05,0.0,0 STARLINK-4017,1 52682U 22053AC  23265.87693964  .00004900  00000-0  32585-3 0  9994,2 52682  53.2173 219.0508 0001610  96.1120 264.0056 15.08829622 75466,6917.912,95.438,540.891,538.663,0.0
52682.0,STARLINK-4017,PAYLOAD,2023-09-23 03:24:19,15.08843231,0.000144,53.2177,217.8607,94.7736,265.3421,0.00019756,2.858e-05,0.0,0 STARLINK-4017,1 52682U 22053AC  23266.14189387  .00002858  00000-0  19756-3 0  9999,2 52682  53.2177 217.8607 0001440  94.7736 265.3421 15.08843231 75095,6917.871,95.437,540.732,538.739,0.0
52682.0,STARLINK-4017,PAYLOAD,2023-09-24 01:39:43,15.08845449,0.0001305,53.2178,213.6993,86.3644,273.7497,3.8326e-05,3.22e-06,0.0,0 STARLINK-4017,1 52682U 22053AC  23267.06925583  .00000322  00000-0  38326-4 0  9996,2 52682  53.2178 213.6993 0001305  86.3644 273.7497 15.08845449 75238,6917.864,95.437,540.632,538.826,0.0
52682.0,STARLINK-4017,PAYLOAD,2023-09-24 03:15:06,15.08849964,0.0001389,53.2182,213.3999,71.0429,289.0713,4.1409e-05,3.71e-06,0.0,0 STARLINK-4017,1 52682U 22053AC  23267.13549330  .00000371  00000-0  41409-4 0  9996,2 52682  53.2182 213.3999 0001389  71.0429 289.0713 15.08849964 75653,6917.85,95.437,540.676,538.754,0.0
52682.0,STARLINK-4017,PAYLOAD,2023-09-24 19:08:58,15.08843186,0.0001378,53.2181,210.4257,111.285,248.8289,4.9859e-06,-2.09e-06,0.0,0 STARLINK-4017,1 52682U 22053AC  23267.79789723 -.00000209  00000-0  49859-5 0  9999,2 52682  53.2181 210.4257 0001378 111.2850 248.8289 15.08843186 75752,6917.871,95.437,540.689,538.782,0.0
52682.0,STARLINK-4017,PAYLOAD,2023-09-25 03:05:53,15.0884733,0.0001228,53.2173,208.9383,87.0451,273.0681,3.802e-05,3.17e-06,0.0,0 STARLINK-4017,1 52682U 22053AC  23268.12909338  .00000317  00000-0  38020-4 0  9999,2 52682  53.2173 208.9383 0001228  87.0451 273.0681 15.08847330 75397,6917.858,95.437,540.572,538.873,0.0
52682.0,STARLINK-4017,PAYLOAD,2023-09-25 12:38:12,15.08849565,0.0001204,53.2162,207.1534,83.5583,276.5546,0.00011223,1.499e-05,0.0,0 STARLINK-4017,1 52682U 22053AC  23268.52653071  .00001499  00000-0  11223-3 0  9990,2 52682  53.2162 207.1534 0001204  83.5583 276.5546 15.08849565 75867,6917.851,95.437,540.549,538.883,0.0
52682.0,STARLINK-4017,PAYLOAD,2023-09-25 20:35:07,15.08851258,0.0001109,53.2161,205.6662,94.5159,265.596,0.00018699,2.69e-05,0.0,0 STARLINK-4017,1 52682U 22053AC  23268.85772922  .00002690  00000-0  18699-3 0  9991,2 52682  53.2161 205.6662 0001109  94.5159 265.5960 15.08851258 75912,6917.846,95.437,540.478,538.944,0.0
52682.0,STARLINK-4017,PAYLOAD,2023-09-26 01:21:16,15.08865235,0.000133,53.217,204.7754,113.6029,246.5103,0.00033506,5.052e-05,0.0,0 STARLINK-4017,1 52682U 22053AC  23269.05643867  .00005052  00000-0  33506-3 0  9998,2 52682  53.2170 204.7754 0001330 113.6029 246.5103 15.08865235 75535,6917.803,95.436,540.588,538.748,0.0
52682.0,STARLINK-4017,PAYLOAD,2023-09-27 02:47:28,15.08834919,0.0001358,53.2164,200.0157,71.6179,288.4961,-0.00011625,-2.137e-05,0.0,0 STARLINK-4017,1 52682U 22053AC  23270.11629664 -.00002137  00000-0 -11625-3 0  9997,2 52682  53.2164 200.0157 0001358  71.6179 288.4961 15.08834919 75692,6917.896,95.438,540.7,538.821,0.0
52682.0,STARLINK-4017,PAYLOAD,2023-09-27 12:19:47,15.0882531,0.0001295,53.2163,198.2323,85.622,274.492,-0.00022538,-3.872e-05,0.0,0 STARLINK-4017,1 52682U 22053AC  23270.51374334 -.00003872  00000-0 -22538-3 0  9994,2 52682  53.2163 198.2323 0001295  85.6220 274.4920 15.08825310 76164,6917.925,95.438,540.686,538.894,0.0
52682.0,STARLINK-4017,PAYLOAD,2023-09-28 02:38:15,15.0884486,0.0001948,53.2175,195.5583,105.9977,254.1229,-0.00018465,-3.226e-05,0.0,0 STARLINK-4017,1 52682U 22053AC  23271.10990539 -.00003226  00000-0 -18465-3 0  9998,2 52682  53.2175 195.5583 0001948 105.9977 254.1229 15.08844860 75847,6917.866,95.437,541.078,538.383,0.0
52682.0,STARLINK-4017,PAYLOAD,2023-09-28 04:13:38,15.08848,0.0001868,53.2174,195.2606,105.0142,255.1057,-0.0002111,-3.647e-05,0.0,0 STARLINK-4017,1 52682U 22053AC  23271.17614389 -.00003647  00000-0 -21110-3 0  9999,2 52682  53.2174 195.2606 0001868 105.0142 255.1057 15.08848000 76262,6917.856,95.437,541.013,538.429,0.0
52682.0,STARLINK-4017,PAYLOAD,2023-09-28 18:32:07,15.08829609,0.0001536,53.2172,192.5847,91.1526,268.9642,0.00018127,2.597e-05,0.0,0 STARLINK-4017,1 52682U 22053AC  23271.77230914  .00002597  00000-0  18127-3 0  9998,2 52682  53.2172 192.5847 0001536  91.1526 268.9642 15.08829609 75940,6917.912,95.438,540.84,538.715,0.0
52682.0,STARLINK-4017,PAYLOAD,2023-09-29 04:04:25,15.08837352,0.0001519,53.2173,190.8005,91.5583,268.5583,0.00026843,3.986e-05,0.0,0 STARLINK-4017,1 52682U 22053AC  23272.16974417  .00003986  00000-0  26843-3 0  9992,2 52682  53.2173 190.8005 0001519  91.5583 268.5583 15.08837352 76008,6917.888,95.438,540.804,538.703,0.0
52682.0,STARLINK-4017,PAYLOAD,2023-09-30 00:44:28,15.08829772,0.0001466,53.2174,186.9337,99.8372,260.2786,1.3959e-05,-6.6e-07,0.0,0 STARLINK-4017,1 52682U 22053AC  23273.03088333 -.00000066  00000-0  13959-4 0  9994,2 52682  53.2174 186.9337 0001466  99.8372 260.2786 15.08829772 76136,6917.912,95.438,540.791,538.762,0.0
52682.0,STARLINK-4017,PAYLOAD,2023-09-30 18:13:40,15.08920089,9.46e-05,53.2171,183.6621,116.1364,243.9725,-0.0010365,-0.00016782,0.0,0 STARLINK-4017,1 52682U 22053AC  23273.75949765 -.00016782  00000-0 -10365-2 0  9997,2 52682  53.2171 183.6621 0000946 116.1364 243.9725 15.08920089 76245,6917.636,95.432,540.155,538.846,0.0
52682.0,STARLINK-4017,PAYLOAD,2023-10-01 00:35:13,15.08876689,0.0001404,53.2168,182.4742,98.717,261.3981,-0.00043022,-7.135e-05,0.0,0 STARLINK-4017,1 52682U 22053AC  23274.02445668 -.00007135  00000-0 -43022-3 0  9990,2 52682  53.2168 182.4742 0001404  98.7170 261.3981 15.08876689 76280,6917.768,95.435,540.605,538.662,0.0
52682.0,STARLINK-4017,PAYLOAD,2023-10-01 18:04:28,15.08854796,0.0001543,53.2169,179.2033,95.8609,264.2559,0.00026898,3.997e-05,0.0,0 STARLINK-4017,1 52682U 22053AC  23274.75311029  .00003997  00000-0  26898-3 0  9995,2 52682  53.2169 179.2033 0001543  95.8609 264.2559 15.08854796 76397,6917.835,95.437,540.768,538.633,0.0
